UTMN 2 (RS27S)          
1 57203U 23091AP  26173.80823007  .00010462  00000+0  33892-3 0  9999
2 57203  97.5086 241.1075 0008935  66.9167 293.3016 15.32166840165400
KUZGTU 1 (RS47S)        
1 57217U 23091AV  26173.85517767  .00009416  00000+0  32648-3 0  9997
2 57217  97.5062 238.3931 0012151  80.6365 279.6249 15.29966775165244
SONATE-2                
1 59112U 24043Q   26173.85123223  .00032866  00000+0  42101-3 0  9991
2 59112  97.5538 324.5963 0007279 176.8356 183.2948 15.59094291128775
MESAT1                  
1 60209U 24125G   26173.54658285  .00046646  00000+0  49841-3 0  9997
2 60209  97.2291  31.1529 0010103 184.2712 175.8463 15.63717946110409
OOV-CUBE (TUBSAT-30)    
1 60240U 24128F   26173.57817917  .00001157  00000+0  10015-3 0  9996
2 60240  61.9926 206.7746 0043962 134.9443 225.5227 15.02789334106926
COLIBRI-S (RS67S)       
1 61746U 24199M   26173.81561746  .00017530  00000+0  33759-3 0  9991
2 61746  97.2992  47.7211 0006361 250.9303 109.1259 15.47922194138287
HORS 3 (RS81S)          
1 61753U 24199U   26173.81623863  .00030192  00000+0  44564-3 0  9993
2 61753  97.2972  49.7698 0003951 244.0660 116.0188 15.55309120138438
HORS 4 (RS82S)          
1 61754U 24199V   26173.82379279  .00042435  00000+0  52182-3 0  9992
2 61754  97.2918  51.0157 0003730 225.6437 134.4514 15.60145328138528
SIT-2086                
1 61764U 24199AF  26173.80131917  .00029205  00000+0  46160-3 0  9995
2 61764  97.2932  50.2113 0005255 223.8340 136.2497 15.53422884135305
HYPERVIEW 1G (RS66S)    
1 61772U 24199AP  26173.77527187  .00129662  00000+0  78327-3 0  9996
2 61772  97.2865  53.7817 0005116 197.7492 162.3597 15.77238828135558
ALTAIR (RS65S)          
1 61779U 24199AW  26173.84093849  .00008190  00000+0  22737-3 0  9990
2 61779  97.3028  43.1543 0010791 287.6710  72.3356 15.37103389137984
ASRTU-1 (AO-123)        
1 61781U 24199AY  26173.83380856  .00005786  00000+0  16840-3 0  9995
2 61781  97.2999  42.4534 0011980 290.9998  68.9964 15.35742963134798
SAMSAT-IONOSPHERE (RS7*)
1 61784U 24199BB  26173.84049710  .00038513  00000+0  51235-3 0  9991
2 61784  97.2941  49.8618 0006180 247.2078 112.8525 15.58061687138442
RTU MIREA 1 (RS51S)     
1 61785U 24199BC  26173.85219208  .00046246  00000+0  53674-3 0  9995
2 61785  97.2929  50.7352 0006012 238.5143 121.5528 15.61628409135357
TEVEL2-4                
1 63213U 25052D   26172.68117075  .00014398  00000+0  42941-3 0  9999
2 63213  97.3895  69.0801 0004965  94.6694 265.5117 15.34745367 70801
TEVEL2-5                
1 63214U 25052E   26173.41945353  .00013715  00000+0  41121-3 0  9991
2 63214  97.3894  69.7659 0004889  94.7236 265.4565 15.34589962 70912
TEVEL2-6                
1 63215U 25052F   26173.23628066  .00013939  00000+0  41841-3 0  9998
2 63215  97.3899  69.5668 0004757  95.5111 264.6675 15.34550217 70881
TEVEL2-1                
1 63217U 25052H   26172.67998997  .00013561  00000+0  41432-3 0  9997
2 63217  97.3870  68.6292 0004905 104.4145 255.7643 15.33994869 70786
TEVEL2-3                
1 63218U 25052J   26173.19630016  .00013736  00000+0  41869-3 0  9999
2 63218  97.3873  69.1678 0004858 103.9663 256.2121 15.34065187 70869
TEVEL2-2                
1 63219U 25052K   26173.26735470  .00013780  00000+0  42062-3 0  9993
2 63219  97.3874  69.2190 0004903 103.8133 256.3656 15.34020096 70878
TEVEL2-9                
1 63237U 25052AD  26173.44730229  .00012471  00000+0  40513-3 0  9995
2 63237  97.3936  68.7627 0008184 116.4765 243.7317 15.32032450 70837
TEVEL2-7                
1 63238U 25052AE  26173.22791571  .00011733  00000+0  38497-3 0  9997
2 63238  97.3939  68.4578 0008225 117.2661 242.9419 15.31728224 70792
TEVEL2-8                
1 63239U 25052AF  26173.69351598  .00011938  00000+0  39166-3 0  9991
2 63239  97.3936  68.8989 0008249 116.5342 243.6747 15.31724980 70869
INNOSAT 16 (RS92S7)     
1 64878U 25155C   26173.84002173  .00004509  00000+0  18059-3 0  9998
2 64878  97.4563 140.9496 0011201 156.4610 203.7143 15.25506710 81539
GEOSCAN 6 (RS92S6)      
1 64879U 25155D   26173.80539449  .00007242  00000+0  24990-3 0  9994
2 64879  97.4556 142.3789 0009009 144.8057 215.3780 15.30238301 81622
GEOSCAN 1 (RS92S1)      
1 64880U 25155E   26173.80564634  .00008789  00000+0  29712-3 0  9994
2 64880  97.4553 142.5320 0008957 144.6223 215.5614 15.30843580 81638
239ALFEROV (RS61S)      
1 64881U 25155F   26173.83247686  .00010979  00000+0  34568-3 0  9992
2 64881  97.4553 143.1395 0008678 142.2917 217.8935 15.33067874 81674
GEOSCAN 2 (RS92S2)      
1 64890U 25155Q   26173.79833575  .00008715  00000+0  29218-3 0  9996
2 64890  97.4552 142.6794 0008665 133.0504 227.1464 15.31114407 81647
GEOSCAN 5 (RS92S5)      
1 64891U 25155R   26173.82033470  .00011095  00000+0  34596-3 0  9997
2 64891  97.4545 143.2669 0007463 145.7462 214.4263 15.33385333 81686
GEOSCAN 4 (RS92S4)      
1 64892U 25155S   26173.80395826  .00012074  00000+0  37437-3 0  9997
2 64892  97.4548 143.3003 0007533 145.2712 214.9023 15.33541520 81685
GEOSCAN 3 (RS92S3)      
1 64893U 25155T   26173.79741084  .00014218  00000+0  41318-3 0  9992
2 64893  97.4537 143.7397 0007492 143.9134 216.2616 15.35552038 81716
INNOSAT 3 (RS92S0)      
1 64894U 25155U   26173.82139348  .00031748  00000+0  69194-3 0  9990
2 64894  97.4486 145.4532 0007269 137.9921 222.1886 15.44173310 81839
KNACKSAT-2              
1 67683U 98067XZ  26173.53867741  .00038699  00000+0  46548-3 0  9994
2 67683  51.6293 267.5508 0008770 238.8673 121.1461 15.60406263 21114
